CCSDS_OMM_VERS = 2.0
CREATION_DATE  = 
ORIGINATOR     = 

OBJECT_NAME    = SL-16 R/B
OBJECT_ID      = 1993-016B
CENTER_NAME    = EARTH
REF_FRAME      = TEME
TIME_SYSTEM    = UTC
MEAN_ELEMENT_THEORY = SGP/SGP4

EPOCH          = 2026-02-09T02:02:18.582720
MEAN_MOTION    = 14.15303599
ECCENTRICITY   = .00103255
INCLINATION    = 71.0066
RA_OF_ASC_NODE = 275.2634
ARG_OF_PERICENTER = 353.0260
MEAN_ANOMALY   = 7.0718

EPHEMERIS_TYPE = 0
CLASSIFICATION_TYPE = U
NORAD_CAT_ID   = 22566
ELEMENT_SET_NO = 999
REV_AT_EPOCH   = 69812
BSTAR          = -.6560757E-4
MEAN_MOTION_DOT = -.176E-5
MEAN_MOTION_DDOT = 0

CCSDS_OMM_VERS = 2.0
CREATION_DATE  = 
ORIGINATOR     = 

OBJECT_NAME    = COSMOS 2242
OBJECT_ID      = 1993-024A
CENTER_NAME    = EARTH
REF_FRAME      = TEME
TIME_SYSTEM    = UTC
MEAN_ELEMENT_THEORY = SGP/SGP4

EPOCH          = 2026-02-09T03:38:10.618656
MEAN_MOTION    = 14.96429420
ECCENTRICITY   = .00176198
INCLINATION    = 82.5191
RA_OF_ASC_NODE = 294.0123
ARG_OF_PERICENTER = 45.1177
MEAN_ANOMALY   = 315.1472

EPHEMERIS_TYPE = 0
CLASSIFICATION_TYPE = U
NORAD_CAT_ID   = 22626
ELEMENT_SET_NO = 999
REV_AT_EPOCH   = 77612
BSTAR          = .16147094E-3
MEAN_MOTION_DOT = .1862E-4
MEAN_MOTION_DDOT = 0

CCSDS_OMM_VERS = 2.0
CREATION_DATE  = 
ORIGINATOR     = 

OBJECT_NAME    = SL-16 R/B
OBJECT_ID      = 1993-059B
CENTER_NAME    = EARTH
REF_FRAME      = TEME
TIME_SYSTEM    = UTC
MEAN_ELEMENT_THEORY = SGP/SGP4

EPOCH          = 2026-02-09T12:38:26.841984
MEAN_MOTION    = 14.17227876
ECCENTRICITY   = .00194906
INCLINATION    = 70.9892
RA_OF_ASC_NODE = 70.5189
ARG_OF_PERICENTER = 255.2353
MEAN_ANOMALY   = 104.6611

EPHEMERIS_TYPE = 0
CLASSIFICATION_TYPE = U
NORAD_CAT_ID   = 22803
ELEMENT_SET_NO = 999
REV_AT_EPOCH   = 67554
BSTAR          = .68763323E-4
MEAN_MOTION_DOT = .91E-6
MEAN_MOTION_DDOT = 0

CCSDS_OMM_VERS = 2.0
CREATION_DATE  = 
ORIGINATOR     = 

OBJECT_NAME    = ARIANE 40 R/B
OBJECT_ID      = 1993-061H
CENTER_NAME    = EARTH
REF_FRAME      = TEME
TIME_SYSTEM    = UTC
MEAN_ELEMENT_THEORY = SGP/SGP4

EPOCH          = 2026-02-09T15:02:16.419552
MEAN_MOTION    = 14.32845941
ECCENTRICITY   = .00107738
INCLINATION    = 98.4976
RA_OF_ASC_NODE = 110.0596
ARG_OF_PERICENTER = 13.5922
MEAN_ANOMALY   = 346.5551

EPHEMERIS_TYPE = 0
CLASSIFICATION_TYPE = U
NORAD_CAT_ID   = 22830
ELEMENT_SET_NO = 999
REV_AT_EPOCH   = 69008
BSTAR          = .95027785E-4
MEAN_MOTION_DOT = .216E-5
MEAN_MOTION_DDOT = 0

CCSDS_OMM_VERS = 2.0
CREATION_DATE  = 
ORIGINATOR     = 

OBJECT_NAME    = COSMOS 2278
OBJECT_ID      = 1994-023A
CENTER_NAME    = EARTH
REF_FRAME      = TEME
TIME_SYSTEM    = UTC
MEAN_ELEMENT_THEORY = SGP/SGP4

EPOCH          = 2026-02-09T14:11:00.858624
MEAN_MOTION    = 14.14363490
ECCENTRICITY   = .00066653
INCLINATION    = 71.0500
RA_OF_ASC_NODE = 233.8844
ARG_OF_PERICENTER = 66.8549
MEAN_ANOMALY   = 293.3275

EPHEMERIS_TYPE = 0
CLASSIFICATION_TYPE = U
NORAD_CAT_ID   = 23087
ELEMENT_SET_NO = 999
REV_AT_EPOCH   = 64083
BSTAR          = -.38146821E-4
MEAN_MOTION_DOT = -.12E-5
MEAN_MOTION_DDOT = 0

CCSDS_OMM_VERS = 2.0
CREATION_DATE  = 
ORIGINATOR     = 

OBJECT_NAME    = SL-16 R/B
OBJECT_ID      = 1994-023B
CENTER_NAME    = EARTH
REF_FRAME      = TEME
TIME_SYSTEM    = UTC
MEAN_ELEMENT_THEORY = SGP/SGP4

EPOCH          = 2026-02-09T13:54:30.159936
MEAN_MOTION    = 14.15003730
ECCENTRICITY   = .00044741
INCLINATION    = 70.9997
RA_OF_ASC_NODE = 129.9238
ARG_OF_PERICENTER = 311.8218
MEAN_ANOMALY   = 48.2522

EPHEMERIS_TYPE = 0
CLASSIFICATION_TYPE = U
NORAD_CAT_ID   = 23088
ELEMENT_SET_NO = 999
REV_AT_EPOCH   = 64211
BSTAR          = .67329121E-4
MEAN_MOTION_DOT = .83E-6
MEAN_MOTION_DDOT = 0

CCSDS_OMM_VERS = 2.0
CREATION_DATE  = 
ORIGINATOR     = 

OBJECT_NAME    = SL-16 R/B
OBJECT_ID      = 1994-074B
CENTER_NAME    = EARTH
REF_FRAME      = TEME
TIME_SYSTEM    = UTC
MEAN_ELEMENT_THEORY = SGP/SGP4

EPOCH          = 2026-02-09T14:22:46.441632
MEAN_MOTION    = 14.79374049
ECCENTRICITY   = .0005598
INCLINATION    = 97.7147
RA_OF_ASC_NODE = 72.5499
ARG_OF_PERICENTER = 323.5874
MEAN_ANOMALY   = 152.2226

EPHEMERIS_TYPE = 0
CLASSIFICATION_TYPE = U
NORAD_CAT_ID   = 23343
ELEMENT_SET_NO = 999
REV_AT_EPOCH   = 68309
BSTAR          = .81732034E-4
MEAN_MOTION_DOT = .56E-5
MEAN_MOTION_DDOT = 0

CCSDS_OMM_VERS = 2.0
CREATION_DATE  = 
ORIGINATOR     = 

OBJECT_NAME    = SL-16 R/B
OBJECT_ID      = 1994-077B
CENTER_NAME    = EARTH
REF_FRAME      = TEME
TIME_SYSTEM    = UTC
MEAN_ELEMENT_THEORY = SGP/SGP4

EPOCH          = 2026-02-09T10:20:18.886560
MEAN_MOTION    = 14.15557512
ECCENTRICITY   = .00042564
INCLINATION    = 70.9816
RA_OF_ASC_NODE = 51.9400
ARG_OF_PERICENTER = 235.3403
MEAN_ANOMALY   = 124.7319

EPHEMERIS_TYPE = 0
CLASSIFICATION_TYPE = U
NORAD_CAT_ID   = 23405
ELEMENT_SET_NO = 999
REV_AT_EPOCH   = 61223
BSTAR          = .10995051E-3
MEAN_MOTION_DOT = .167E-5
MEAN_MOTION_DDOT = 0

CCSDS_OMM_VERS = 2.0
CREATION_DATE  = 
ORIGINATOR     = 

OBJECT_NAME    = ARIANE 40+ R/B
OBJECT_ID      = 1995-021B
CENTER_NAME    = EARTH
REF_FRAME      = TEME
TIME_SYSTEM    = UTC
MEAN_ELEMENT_THEORY = SGP/SGP4

EPOCH          = 2026-02-09T04:23:47.964192
MEAN_MOTION    = 14.39751085
ECCENTRICITY   = .00061077
INCLINATION    = 98.4557
RA_OF_ASC_NODE = 112.0437
ARG_OF_PERICENTER = 219.6338
MEAN_ANOMALY   = 195.2120

EPHEMERIS_TYPE = 0
CLASSIFICATION_TYPE = U
NORAD_CAT_ID   = 23561
ELEMENT_SET_NO = 999
REV_AT_EPOCH   = 61514
BSTAR          = .11567043E-3
MEAN_MOTION_DOT = .319E-5
MEAN_MOTION_DDOT = 0

CCSDS_OMM_VERS = 2.0
CREATION_DATE  = 
ORIGINATOR     = 

OBJECT_NAME    = SL-16 R/B
OBJECT_ID      = 1995-058B
CENTER_NAME    = EARTH
REF_FRAME      = TEME
TIME_SYSTEM    = UTC
MEAN_ELEMENT_THEORY = SGP/SGP4

EPOCH          = 2026-02-09T13:51:54.061920
MEAN_MOTION    = 14.15493106
ECCENTRICITY   = .00121834
INCLINATION    = 71.0190
RA_OF_ASC_NODE = 239.2750
ARG_OF_PERICENTER = 172.3270
MEAN_ANOMALY   = 187.8042

EPHEMERIS_TYPE = 0
CLASSIFICATION_TYPE = U
NORAD_CAT_ID   = 23705
ELEMENT_SET_NO = 999
REV_AT_EPOCH   = 56387
BSTAR          = .1673685E-3
MEAN_MOTION_DOT = .28E-5
MEAN_MOTION_DDOT = 0

CCSDS_OMM_VERS = 2.0
CREATION_DATE  = 
ORIGINATOR     = 

OBJECT_NAME    = SL-16 R/B
OBJECT_ID      = 1996-051B
CENTER_NAME    = EARTH
REF_FRAME      = TEME
TIME_SYSTEM    = UTC
MEAN_ELEMENT_THEORY = SGP/SGP4

EPOCH          = 2026-02-09T14:59:56.626944
MEAN_MOTION    = 14.12407557
ECCENTRICITY   = .00174677
INCLINATION    = 70.7565
RA_OF_ASC_NODE = 234.6418
ARG_OF_PERICENTER = 187.4379
MEAN_ANOMALY   = 172.6484

EPHEMERIS_TYPE = 0
CLASSIFICATION_TYPE = U
NORAD_CAT_ID   = 24298
ELEMENT_SET_NO = 999
REV_AT_EPOCH   = 51768
BSTAR          = .73637581E-4
MEAN_MOTION_DOT = .87E-6
MEAN_MOTION_DDOT = 0

CCSDS_OMM_VERS = 2.0
CREATION_DATE  = 
ORIGINATOR     = 

OBJECT_NAME    = ORBVIEW 2 (SEASTAR)
OBJECT_ID      = 1997-037A
CENTER_NAME    = EARTH
REF_FRAME      = TEME
TIME_SYSTEM    = UTC
MEAN_ELEMENT_THEORY = SGP/SGP4

EPOCH          = 2026-02-09T09:32:18.207744
MEAN_MOTION    = 14.35472855
ECCENTRICITY   = .00029466
INCLINATION    = 98.8517
RA_OF_ASC_NODE = 203.9676
ARG_OF_PERICENTER = 129.4602
MEAN_ANOMALY   = 230.6843

EPHEMERIS_TYPE = 0
CLASSIFICATION_TYPE = U
NORAD_CAT_ID   = 24883
ELEMENT_SET_NO = 999
REV_AT_EPOCH   = 50441
BSTAR          = .15559074E-3
MEAN_MOTION_DOT = .401E-5
MEAN_MOTION_DDOT = 0

