SL-16 R/B               
1 22566U 93016B   26040.08493730 -.00000176  00000+0 -65608-4 0  9990
2 22566  71.0066 275.2634 0010325 353.0260   7.0718 14.15303599698121
COSMOS 2242             
1 22626U 93024A   26040.15151179  .00001862  00000+0  16147-3 0  9996
2 22626  82.5191 294.0123 0017619  45.1177 315.1472 14.96429420776123
SL-16 R/B               
1 22803U 93059B   26040.52669956  .00000091  00000+0  68763-4 0  9994
2 22803  70.9892  70.5189 0019490 255.2353 104.6611 14.17227876675541
ARIANE 40 R/B           
1 22830U 93061H   26040.62657893  .00000216  00000+0  95028-4 0  9998
2 22830  98.4976 110.0596 0010773  13.5922 346.5551 14.32845941690085
COSMOS 2278             
1 23087U 94023A   26040.59098216 -.00000120  00000+0 -38147-4 0  9991
2 23087  71.0500 233.8844 0006665  66.8549 293.3275 14.14363490640835
SL-16 R/B               
1 23088U 94023B   26040.57951574  .00000083  00000+0  67329-4 0  9995
2 23088  70.9997 129.9238 0004474 311.8218  48.2522 14.15003730642112
SL-16 R/B               
1 23343U 94074B   26040.59914863  .00000560  00000+0  81732-4 0  9991
2 23343  97.7147  72.5499 0005598 323.5874 152.2226 14.79374049683091
SL-16 R/B               
1 23405U 94077B   26040.43077415  .00000167  00000+0  10995-3 0  9994
2 23405  70.9816  51.9400 0004256 235.3403 124.7319 14.15557512612230
ARIANE 40+ R/B          
1 23561U 95021B   26040.18319403  .00000319  00000+0  11567-3 0  9990
2 23561  98.4557 112.0437 0006107 219.6338 195.2120 14.39751085615141
SL-16 R/B               
1 23705U 95058B   26040.57770905  .00000280  00000+0  16737-3 0  9992
2 23705  71.0190 239.2750 0012183 172.3270 187.8042 14.15493106563875
SL-16 R/B               
1 24298U 96051B   26040.62496096  .00000087  00000+0  73638-4 0  9995
2 24298  70.7565 234.6418 0017467 187.4379 172.6484 14.12407557517684
ORBVIEW 2 (SEASTAR)     
1 24883U 97037A   26040.39743296  .00000401  00000+0  15559-3 0  9998
2 24883  98.8517 203.9676 0002946 129.4602 230.6843 14.35472855504417
